[
  {
    "name": "ONEWEB-0534",
    "noradId": "55797",
    "line1": "1 55797U 23029B   26180.27498380  .00000133  00000+0  29555-3 0  9992",
    "line2": "2 55797  87.9187 272.0601 0001924 101.8428 258.2921 13.20772587162744"
  },
  {
    "name": "ONEWEB-0556",
    "noradId": "55798",
    "line1": "1 55798U 23029C   26180.28170059 -.00000096  00000+0 -26784-3 0  9995",
    "line2": "2 55798  87.9187 272.0578 0001230  87.2539 272.8735 13.20772244162743"
  },
  {
    "name": "ONEWEB-0562",
    "noradId": "55799",
    "line1": "1 55799U 23029D   26180.26825470  .00000073  00000+0  14718-3 0  9995",
    "line2": "2 55799  87.9187 272.0414 0001869  75.4167 284.7174 13.20771677162745"
  },
  {
    "name": "ONEWEB-0563",
    "noradId": "55800",
    "line1": "1 55800U 23029E   26179.96017288  .00000068  00000+0  13566-3 0  9997",
    "line2": "2 55800  87.9185 272.1331 0001879 105.7205 254.4136 13.20772743162697"
  },
  {
    "name": "ONEWEB-0564",
    "noradId": "55801",
    "line1": "1 55801U 23029F   26179.95345090 -.00000004  00000+0 -40894-4 0  9999",
    "line2": "2 55801  87.9186 272.1081 0001980  88.6369 271.4991 13.20772002162702"
  },
  {
    "name": "ONEWEB-0638",
    "noradId": "55802",
    "line1": "1 55802U 23029G   26180.34356059 -.00000075  00000+0 -23607-3 0  9992",
    "line2": "2 55802  87.8960 287.3282 0001499  88.4111 271.7190 13.14504565160994"
  },
  {
    "name": "ONEWEB-0639",
    "noradId": "55803",
    "line1": "1 55803U 23029H   26180.31422486  .00000098  00000+0  21227-3 0  9997",
    "line2": "2 55803  87.9179 302.5601 0001922 129.5567 230.5736 13.19725612160505"
  },
  {
    "name": "ONEWEB-0640",
    "noradId": "55804",
    "line1": "1 55804U 23029J   26180.27695440  .00000243  00000+0  62093-3 0  9993",
    "line2": "2 55804  87.8958 287.3323 0001254 100.6249 259.5022 13.14503988161006"
  },
  {
    "name": "ONEWEB-0641",
    "noradId": "55805",
    "line1": "1 55805U 23029K   26180.30949448  .00000079  00000+0  16454-3 0  9995",
    "line2": "2 55805  87.9188 302.5513 0001909 105.4265 254.7079 13.19725338160516"
  },
  {
    "name": "ONEWEB-0642",
    "noradId": "55806",
    "line1": "1 55806U 23029L   26180.30476598  .00000084  00000+0  17829-3 0  9990",
    "line2": "2 55806  87.9179 302.5631 0002129 123.3728 236.7608 13.19725413160507"
  },
  {
    "name": "ONEWEB-0643",
    "noradId": "55807",
    "line1": "1 55807U 23029M   26180.32294413 -.00000177  00000+0 -51174-3 0  9993",
    "line2": "2 55807  87.8963 287.3105 0002315 116.9630 243.1736 13.14504028160989"
  },
  {
    "name": "ONEWEB-0644",
    "noradId": "55808",
    "line1": "1 55808U 23029N   26180.30002521  .00000048  00000+0  87517-4 0  9995",
    "line2": "2 55808  87.9179 302.5652 0001977 110.8934 249.2410 13.19724699160507"
  },
  {
    "name": "ONEWEB-0645",
    "noradId": "55809",
    "line1": "1 55809U 23029P   26180.32213603 -.00000007  00000+0 -48658-4 0  9993",
    "line2": "2 55809  87.9179 302.5578 0001581 111.3157 248.8144 13.19724928160503"
  },
  {
    "name": "ONEWEB-0646",
    "noradId": "55810",
    "line1": "1 55810U 23029Q   26180.33951263  .00000051  00000+0  94257-4 0  9990",
    "line2": "2 55810  87.9178 302.5546 0001984 109.0164 251.1184 13.19726195160495"
  },
  {
    "name": "ONEWEB-0648",
    "noradId": "55811",
    "line1": "1 55811U 23029R   26180.29123450  .00000228  00000+0  57923-3 0  9999",
    "line2": "2 55811  87.8972 287.2915 0001651 129.3007 230.8269 13.14501720160980"
  }
]