{"fetchedAt":"2026-06-29T18:07:57.466Z","satellites":[{"id":"55797","name":"ONEWEB-0534","constellationId":"oneweb","omm":{"OBJECT_NAME":"ONEWEB-0534","OBJECT_ID":"2023-029B","EPOCH":"2026-06-29T06:35:58.600320","MEAN_MOTION":13.20772587,"ECCENTRICITY":0.0001924,"INCLINATION":87.9187,"RA_OF_ASC_NODE":272.0601,"ARG_OF_PERICENTER":101.8428,"MEAN_ANOMALY":258.2921,"EPHEMERIS_TYPE":0,"CLASSIFICATION_TYPE":"U","NORAD_CAT_ID":55797,"ELEMENT_SET_NO":999,"REV_AT_EPOCH":16274,"BSTAR":0.00029555,"MEAN_MOTION_DOT":0.00000133,"MEAN_MOTION_DDOT":0}},{"id":"55798","name":"ONEWEB-0556","constellationId":"oneweb","omm":{"OBJECT_NAME":"ONEWEB-0556","OBJECT_ID":"2023-029C","EPOCH":"2026-06-29T06:45:38.930976","MEAN_MOTION":13.20772244,"ECCENTRICITY":0.000123,"INCLINATION":87.9187,"RA_OF_ASC_NODE":272.0578,"ARG_OF_PERICENTER":87.2539,"MEAN_ANOMALY":272.8735,"EPHEMERIS_TYPE":0,"CLASSIFICATION_TYPE":"U","NORAD_CAT_ID":55798,"ELEMENT_SET_NO":999,"REV_AT_EPOCH":16274,"BSTAR":-0.00026784,"MEAN_MOTION_DOT":-9.6e-7,"MEAN_MOTION_DDOT":0}},{"id":"55799","name":"ONEWEB-0562","constellationId":"oneweb","omm":{"OBJECT_NAME":"ONEWEB-0562","OBJECT_ID":"2023-029D","EPOCH":"2026-06-29T06:26:17.206080","MEAN_MOTION":13.20771677,"ECCENTRICITY":0.0001869,"INCLINATION":87.9187,"RA_OF_ASC_NODE":272.0414,"ARG_OF_PERICENTER":75.4167,"MEAN_ANOMALY":284.7174,"EPHEMERIS_TYPE":0,"CLASSIFICATION_TYPE":"U","NORAD_CAT_ID":55799,"ELEMENT_SET_NO":999,"REV_AT_EPOCH":16274,"BSTAR":0.00014718,"MEAN_MOTION_DOT":7.3e-7,"MEAN_MOTION_DDOT":0}},{"id":"55800","name":"ONEWEB-0563","constellationId":"oneweb","omm":{"OBJECT_NAME":"ONEWEB-0563","OBJECT_ID":"2023-029E","EPOCH":"2026-06-28T23:02:38.936832","MEAN_MOTION":13.20772743,"ECCENTRICITY":0.00018792,"INCLINATION":87.9185,"RA_OF_ASC_NODE":272.1331,"ARG_OF_PERICENTER":105.7205,"MEAN_ANOMALY":254.4136,"EPHEMERIS_TYPE":0,"CLASSIFICATION_TYPE":"U","NORAD_CAT_ID":55800,"ELEMENT_SET_NO":999,"REV_AT_EPOCH":16269,"BSTAR":0.00013565957,"MEAN_MOTION_DOT":6.8e-7,"MEAN_MOTION_DDOT":0}},{"id":"55801","name":"ONEWEB-0564","constellationId":"oneweb","omm":{"OBJECT_NAME":"ONEWEB-0564","OBJECT_ID":"2023-029F","EPOCH":"2026-06-28T22:52:58.157760","MEAN_MOTION":13.20772002,"ECCENTRICITY":0.00019807,"INCLINATION":87.9186,"RA_OF_ASC_NODE":272.1081,"ARG_OF_PERICENTER":88.6369,"MEAN_ANOMALY":271.4991,"EPHEMERIS_TYPE":0,"CLASSIFICATION_TYPE":"U","NORAD_CAT_ID":55801,"ELEMENT_SET_NO":999,"REV_AT_EPOCH":16270,"BSTAR":-0.000040894237,"MEAN_MOTION_DOT":-4e-8,"MEAN_MOTION_DDOT":0}},{"id":"55802","name":"ONEWEB-0638","constellationId":"oneweb","omm":{"OBJECT_NAME":"ONEWEB-0638","OBJECT_ID":"2023-029G","EPOCH":"2026-06-29T08:14:43.634976","MEAN_MOTION":13.14504565,"ECCENTRICITY":0.0001499,"INCLINATION":87.896,"RA_OF_ASC_NODE":287.3282,"ARG_OF_PERICENTER":88.4111,"MEAN_ANOMALY":271.719,"EPHEMERIS_TYPE":0,"CLASSIFICATION_TYPE":"U","NORAD_CAT_ID":55802,"ELEMENT_SET_NO":999,"REV_AT_EPOCH":16099,"BSTAR":-0.00023607,"MEAN_MOTION_DOT":-7.5e-7,"MEAN_MOTION_DDOT":0}},{"id":"55803","name":"ONEWEB-0639","constellationId":"oneweb","omm":{"OBJECT_NAME":"ONEWEB-0639","OBJECT_ID":"2023-029H","EPOCH":"2026-06-29T07:32:29.027904","MEAN_MOTION":13.19725612,"ECCENTRICITY":0.0001922,"INCLINATION":87.9179,"RA_OF_ASC_NODE":302.5601,"ARG_OF_PERICENTER":129.5567,"MEAN_ANOMALY":230.5736,"EPHEMERIS_TYPE":0,"CLASSIFICATION_TYPE":"U","NORAD_CAT_ID":55803,"ELEMENT_SET_NO":999,"REV_AT_EPOCH":16050,"BSTAR":0.00021227,"MEAN_MOTION_DOT":9.8e-7,"MEAN_MOTION_DDOT":0}},{"id":"55804","name":"ONEWEB-0640","constellationId":"oneweb","omm":{"OBJECT_NAME":"ONEWEB-0640","OBJECT_ID":"2023-029J","EPOCH":"2026-06-29T06:38:48.860160","MEAN_MOTION":13.14503988,"ECCENTRICITY":0.0001254,"INCLINATION":87.8958,"RA_OF_ASC_NODE":287.3323,"ARG_OF_PERICENTER":100.6249,"MEAN_ANOMALY":259.5022,"EPHEMERIS_TYPE":0,"CLASSIFICATION_TYPE":"U","NORAD_CAT_ID":55804,"ELEMENT_SET_NO":999,"REV_AT_EPOCH":16100,"BSTAR":0.00062093,"MEAN_MOTION_DOT":0.00000243,"MEAN_MOTION_DDOT":0}},{"id":"55805","name":"ONEWEB-0641","constellationId":"oneweb","omm":{"OBJECT_NAME":"ONEWEB-0641","OBJECT_ID":"2023-029K","EPOCH":"2026-06-29T07:25:40.323072","MEAN_MOTION":13.19725338,"ECCENTRICITY":0.0001909,"INCLINATION":87.9188,"RA_OF_ASC_NODE":302.5513,"ARG_OF_PERICENTER":105.4265,"MEAN_ANOMALY":254.7079,"EPHEMERIS_TYPE":0,"CLASSIFICATION_TYPE":"U","NORAD_CAT_ID":55805,"ELEMENT_SET_NO":999,"REV_AT_EPOCH":16051,"BSTAR":0.00016454,"MEAN_MOTION_DOT":7.9e-7,"MEAN_MOTION_DDOT":0}},{"id":"55806","name":"ONEWEB-0642","constellationId":"oneweb","omm":{"OBJECT_NAME":"ONEWEB-0642","OBJECT_ID":"2023-029L","EPOCH":"2026-06-29T07:18:51.780672","MEAN_MOTION":13.19725413,"ECCENTRICITY":0.0002129,"INCLINATION":87.9179,"RA_OF_ASC_NODE":302.5631,"ARG_OF_PERICENTER":123.3728,"MEAN_ANOMALY":236.7608,"EPHEMERIS_TYPE":0,"CLASSIFICATION_TYPE":"U","NORAD_CAT_ID":55806,"ELEMENT_SET_NO":999,"REV_AT_EPOCH":16050,"BSTAR":0.00017829,"MEAN_MOTION_DOT":8.4e-7,"MEAN_MOTION_DDOT":0}},{"id":"55807","name":"ONEWEB-0643","constellationId":"oneweb","omm":{"OBJECT_NAME":"ONEWEB-0643","OBJECT_ID":"2023-029M","EPOCH":"2026-06-29T07:45:02.372832","MEAN_MOTION":13.14504028,"ECCENTRICITY":0.0002315,"INCLINATION":87.8963,"RA_OF_ASC_NODE":287.3105,"ARG_OF_PERICENTER":116.963,"MEAN_ANOMALY":243.1736,"EPHEMERIS_TYPE":0,"CLASSIFICATION_TYPE":"U","NORAD_CAT_ID":55807,"ELEMENT_SET_NO":999,"REV_AT_EPOCH":16098,"BSTAR":-0.00051174,"MEAN_MOTION_DOT":-0.00000177,"MEAN_MOTION_DDOT":0}},{"id":"55808","name":"ONEWEB-0644","constellationId":"oneweb","omm":{"OBJECT_NAME":"ONEWEB-0644","OBJECT_ID":"2023-029N","EPOCH":"2026-06-29T07:12:02.178144","MEAN_MOTION":13.19724699,"ECCENTRICITY":0.0001977,"INCLINATION":87.9179,"RA_OF_ASC_NODE":302.5652,"ARG_OF_PERICENTER":110.8934,"MEAN_ANOMALY":249.241,"EPHEMERIS_TYPE":0,"CLASSIFICATION_TYPE":"U","NORAD_CAT_ID":55808,"ELEMENT_SET_NO":999,"REV_AT_EPOCH":16050,"BSTAR":0.000087517,"MEAN_MOTION_DOT":4.8e-7,"MEAN_MOTION_DDOT":0}},{"id":"55809","name":"ONEWEB-0645","constellationId":"oneweb","omm":{"OBJECT_NAME":"ONEWEB-0645","OBJECT_ID":"2023-029P","EPOCH":"2026-06-29T07:43:52.552992","MEAN_MOTION":13.19724928,"ECCENTRICITY":0.0001581,"INCLINATION":87.9179,"RA_OF_ASC_NODE":302.5578,"ARG_OF_PERICENTER":111.3157,"MEAN_ANOMALY":248.8144,"EPHEMERIS_TYPE":0,"CLASSIFICATION_TYPE":"U","NORAD_CAT_ID":55809,"ELEMENT_SET_NO":999,"REV_AT_EPOCH":16050,"BSTAR":-0.000048658,"MEAN_MOTION_DOT":-7e-8,"MEAN_MOTION_DDOT":0}},{"id":"55810","name":"ONEWEB-0646","constellationId":"oneweb","omm":{"OBJECT_NAME":"ONEWEB-0646","OBJECT_ID":"2023-029Q","EPOCH":"2026-06-29T08:08:53.891232","MEAN_MOTION":13.19726195,"ECCENTRICITY":0.0001984,"INCLINATION":87.9178,"RA_OF_ASC_NODE":302.5546,"ARG_OF_PERICENTER":109.0164,"MEAN_ANOMALY":251.1184,"EPHEMERIS_TYPE":0,"CLASSIFICATION_TYPE":"U","NORAD_CAT_ID":55810,"ELEMENT_SET_NO":999,"REV_AT_EPOCH":16049,"BSTAR":0.000094257,"MEAN_MOTION_DOT":5.1e-7,"MEAN_MOTION_DDOT":0}},{"id":"55811","name":"ONEWEB-0648","constellationId":"oneweb","omm":{"OBJECT_NAME":"ONEWEB-0648","OBJECT_ID":"2023-029R","EPOCH":"2026-06-29T06:59:22.660800","MEAN_MOTION":13.1450172,"ECCENTRICITY":0.0001651,"INCLINATION":87.8972,"RA_OF_ASC_NODE":287.2915,"ARG_OF_PERICENTER":129.3007,"MEAN_ANOMALY":230.8269,"EPHEMERIS_TYPE":0,"CLASSIFICATION_TYPE":"U","NORAD_CAT_ID":55811,"ELEMENT_SET_NO":999,"REV_AT_EPOCH":16098,"BSTAR":0.00057923,"MEAN_MOTION_DOT":0.00000228,"MEAN_MOTION_DDOT":0}}]}